OBJECT_NAME,OBJECT_ID,EPOCH,MEAN_MOTION,ECCENTRICITY,INCLINATION,RA_OF_ASC_NODE,ARG_OF_PERICENTER,MEAN_ANOMALY,EPHEMERIS_TYPE,CLASSIFICATION_TYPE,NORAD_CAT_ID,ELEMENT_SET_NO,REV_AT_EPOCH,BSTAR,MEAN_MOTION_DOT,MEAN_MOTION_DDOT
CARTOSAT-2B,2010-035A,2026-07-16T13:45:51.956064,14.78653335,.00127343,97.9937,247.9326,95.7902,264.4761,0,U,36795,999,86419,.1019035E-3,.695E-5,0
ALSAT-2A,2010-035D,2026-07-16T14:28:50.702304,14.74522231,.00019816,97.7628,198.9602,94.7166,265.4270,0,U,36798,999,85809,.37440317E-4,.201E-5,0
TISAT 1,2010-035E,2026-07-16T08:57:55.715328,15.32758593,.00045803,98.0716,146.5388,117.8384,242.3321,0,U,36799,999,87217,.33781931E-3,.10605E-3,0
BEIDOU-2 IGSO-1,2010-036A,2026-07-14T22:00:55.325664,1.00264343,.0059022,54.3063,162.7092,225.2803,342.1032,0,U,36828,999,5837,0,-.122E-5,0
NILESAT 201,2010-037A,2026-07-16T04:44:03.879168,1.00272743,.00056954,0.0334,226.6606,274.1393,217.2780,0,U,36830,999,5866,0,-.68E-6,0
RASCOM-QAF 1R,2010-037B,2026-07-16T13:20:09.944160,1.00270821,.00062194,0.0087,52.9745,53.3368,31.0123,0,U,36831,999,5860,0,.8E-7,0
YAOGAN-10,2010-038A,2026-07-16T16:03:18.444672,14.85433385,.00016885,97.8965,220.8384,80.8998,58.7456,0,U,36834,999,86158,.12110352E-3,.99E-5,0
AEHF-1 (USA 214),2010-039A,2026-07-16T06:37:17.447232,1.00275160,.00037731,8.2909,67.6666,37.3889,318.3453,0,U,36868,999,5394,0,.133E-5,0
COSMOS 2467,2010-043A,2026-07-16T07:48:09.771840,12.42986481,.0001838,82.4550,46.7881,76.2159,97.1661,0,U,37152,999,71912,.23808037E-3,.43E-6,0
STRELA 3,2010-043B,2026-07-16T13:54:23.857056,12.40792995,.00082458,82.4559,60.1068,25.5089,334.6395,0,U,37153,999,71801,.83165243E-3,.122E-5,0
COSMOS 2468 (RODNIK-S 3),2010-043C,2026-07-16T14:09:48.313728,12.43748056,.00137134,82.4589,43.8214,243.2217,124.9972,0,U,37154,999,71953,.75077833E-4,.2E-6,0
YAOGAN-11,2010-047A,2026-07-16T14:53:16.373760,14.82118728,.00353566,98.3819,65.1069,145.8328,214.5169,0,U,37165,999,85245,.50877113E-4,.349E-5,0
ZHEDA PIXING 1B,2010-047B,2026-07-16T14:56:12.537312,14.91296571,.00191804,97.9490,176.0328,178.9992,181.1267,0,U,37166,999,85480,.81625617E-4,.757E-5,0
ZHEDA PIXING 1C,2010-047C,2026-07-16T14:52:09.126048,14.91031369,.00185912,97.9782,179.5542,186.0887,174.0108,0,U,37167,999,85481,.2988256E-4,.237E-5,0
SBSS (USA 216),2010-048A,2026-07-16T05:45:04.558176,15.16733693,.00823,97.7291,83.2628,103.0825,14.4343,0,U,37168,999,85687,.11309E-3,.2341E-4,0
SHIJIAN-6 04A (SJ-6 04A),2010-051A,2026-07-16T14:53:21.285600,15.18291167,.00199257,97.8266,221.8310,121.8558,238.4617,0,U,37179,999,86141,.22064352E-3,.4472E-4,0
SHIJIAN-6 04B (SJ-6 04B),2010-051B,2026-07-16T14:05:42.874656,14.99382324,.00078238,97.8728,203.3125,207.7552,152.3254,0,U,37180,999,86008,-.1806403E-4,-.283E-5,0
XM-5,2010-053A,2026-07-16T12:05:38.498784,1.00271433,.0001623,0.0597,263.5264,317.5691,139.4384,0,U,37185,999,5777,0,-.34E-6,0
GLOBALSTAR M079,2010-054A,2026-07-16T12:05:44.291040,12.62266420,.00011264,52.0056,19.4254,79.9695,297.7003,0,U,37188,999,72625,-.17722437E-4,-.107E-5,0
GLOBALSTAR M074,2010-054B,2026-07-16T12:48:47.903328,12.62262037,.00008661,52.0031,18.5951,94.2975,299.2776,0,U,37189,999,72686,-.8121932E-5,-.105E-5,0
GLOBALSTAR M076,2010-054C,2026-07-16T13:27:43.766208,12.62262456,.00010985,52.0046,18.7187,94.1979,302.1974,0,U,37190,999,72658,.75276707E-4,-.9E-6,0
GLOBALSTAR M077,2010-054D,2026-07-16T12:19:27.632928,11.67547399,.00022404,51.9961,104.8606,227.7715,303.2903,0,U,37191,999,72456,-.44940057E-3,-.102E-5,0
GLOBALSTAR M075,2010-054E,2026-07-16T15:34:26.836608,12.62267876,.00007663,51.9955,60.4882,66.6670,310.3491,0,U,37192,999,72566,.77642702E-4,-.9E-6,0
GLOBALSTAR M073,2010-054F,2026-07-16T09:58:09.149088,12.62266913,.00010513,52.0081,335.3228,97.8845,295.7014,0,U,37193,999,72762,.14014163E-4,-.101E-5,0
BSAT-3B,2010-056B,2026-07-16T14:38:50.169696,1.00270575,.00027007,0.0725,244.8396,297.0062,82.1325,0,U,37207,999,5239,0,-.361E-5,0
BEIDOU-2 G4,2010-057A,2026-07-16T14:04:55.766784,1.00272555,.00056174,3.7181,68.7608,185.5947,51.2125,0,U,37210,999,5758,0,-.125E-5,0
FENGYUN 3B,2010-059A,2026-07-16T14:22:57.690048,14.14846788,.00231828,98.9603,243.7362,102.6212,50.3613,0,U,37214,999,81158,.8570523E-5,-.28E-6,0
COSMO-SKYMED 4,2010-060A,2026-07-16T14:35:57.552000,14.82150952,.0001517,97.8887,20.7821,87.4849,272.6538,0,U,37216,999,84892,.89955585E-4,.664E-5,0
SKYTERRA 1,2010-061A,2026-07-16T14:33:00.575424,1.00270386,.00025788,5.1860,50.8064,26.3471,334.1974,0,U,37218,999,5748,0,-.13E-5,0
O/OREOS (USA 219),2010-062C,2026-07-16T11:03:25.243776,14.93854221,.00140315,71.9698,14.0214,2.6006,357.5235,0,U,37224,999,12101,.98138959E-4,.98E-5,0
