CARTOSAT-2B             
1 36795U 10035A   26197.57351801  .00000695  00000+0  10190-3 0  9997
2 36795  97.9937 247.9326 0012734  95.7902 264.4761 14.78653335864191
ALSAT-2A                
1 36798U 10035D   26197.60336461  .00000201  00000+0  37440-4 0  9990
2 36798  97.7628 198.9602 0001981  94.7166 265.4270 14.74522231858098
TISAT 1                 
1 36799U 10035E   26197.37356152  .00010605  00000+0  33782-3 0  9997
2 36799  98.0716 146.5388 0004580 117.8384 242.3321 15.32758593872171
BEIDOU-2 IGSO-1         
1 36828U 10036A   26195.91730701 -.00000122  00000+0  00000+0 0  9992
2 36828  54.3063 162.7092 0059022 225.2803 342.1032  1.00264343 58378
NILESAT 201             
1 36830U 10037A   26197.19726712 -.00000068  00000+0  00000+0 0  9994
2 36830   0.0334 226.6606 0005695 274.1393 217.2780  1.00272743 58662
RASCOM-QAF 1R           
1 36831U 10037B   26197.55567065  .00000008  00000+0  00000+0 0  9992
2 36831   0.0087  52.9745 0006219  53.3368  31.0123  1.00270821 58606
YAOGAN-10               
1 36834U 10038A   26197.66896348  .00000990  00000+0  12110-3 0  9996
2 36834  97.8965 220.8384 0001688  80.8998  58.7456 14.85433385861589
AEHF-1 (USA 214)        
1 36868U 10039A   26197.27589638  .00000133  00000+0  00000+0 0  9992
2 36868   8.2909  67.6666 0003773  37.3889 318.3453  1.00275160 53946
COSMOS 2467             
1 37152U 10043A   26197.32511310  .00000043  00000+0  23808-3 0  9997
2 37152  82.4550  46.7881 0001838  76.2159  97.1661 12.42986481719123
STRELA 3                
1 37153U 10043B   26197.57944279  .00000122  00000+0  83165-3 0  9999
2 37153  82.4559  60.1068 0008245  25.5089 334.6395 12.40792995718011
COSMOS 2468 (RODNIK-S 3)
1 37154U 10043C   26197.59014252  .00000020  00000+0  75078-4 0  9993
2 37154  82.4589  43.8214 0013713 243.2217 124.9972 12.43748056719535
YAOGAN-11               
1 37165U 10047A   26197.62032840  .00000349  00000+0  50877-4 0  9990
2 37165  98.3819  65.1069 0035356 145.8328 214.5169 14.82118728852456
ZHEDA PIXING 1B         
1 37166U 10047B   26197.62236733  .00000757  00000+0  81626-4 0  9997
2 37166  97.9490 176.0328 0019180 178.9992 181.1267 14.91296571854800
ZHEDA PIXING 1C         
1 37167U 10047C   26197.61955007  .00000237  00000+0  29883-4 0  9999
2 37167  97.9782 179.5542 0018591 186.0887 174.0108 14.91031369854817
SBSS (USA 216)          
1 37168U 10048A   26197.23963609  .00002341  00000+0  11309-3 0  9997
2 37168  97.7291  83.2628 0082300 103.0825  14.4343 15.16733693856870
SHIJIAN-6 04A (SJ-6 04A)
1 37179U 10051A   26197.62038525  .00004472  00000+0  22064-3 0  9993
2 37179  97.8266 221.8310 0019925 121.8558 238.4617 15.18291167861412
SHIJIAN-6 04B (SJ-6 04B)
1 37180U 10051B   26197.58730179 -.00000283  00000+0 -18064-4 0  9998
2 37180  97.8728 203.3125 0007823 207.7552 152.3254 14.99382324860085
XM-5                    
1 37185U 10053A   26197.50391781 -.00000034  00000+0  00000+0 0  9998
2 37185   0.0597 263.5264 0001623 317.5691 139.4384  1.00271433 57778
GLOBALSTAR M079         
1 37188U 10054A   26197.50398485 -.00000107  00000+0 -17722-4 0  9996
2 37188  52.0056  19.4254 0001126  79.9695 297.7003 12.62266420726258
GLOBALSTAR M074         
1 37189U 10054B   26197.53388777 -.00000105  00000+0 -81219-5 0  9994
2 37189  52.0031  18.5951 0000866  94.2975 299.2776 12.62262037726868
GLOBALSTAR M076         
1 37190U 10054C   26197.56092322 -.00000090  00000+0  75277-4 0  9995
2 37190  52.0046  18.7187 0001098  94.1979 302.1974 12.62262456726588
GLOBALSTAR M077         
1 37191U 10054D   26197.51351427 -.00000102  00000+0 -44940-3 0  9992
2 37191  51.9961 104.8606 0002240 227.7715 303.2903 11.67547399724564
GLOBALSTAR M075         
1 37192U 10054E   26197.64892172 -.00000090  00000+0  77643-4 0  9996
2 37192  51.9955  60.4882 0000766  66.6670 310.3491 12.62267876725660
GLOBALSTAR M073         
1 37193U 10054F   26197.41538367 -.00000101  00000+0  14014-4 0  9991
2 37193  52.0081 335.3228 0001051  97.8845 295.7014 12.62266913727625
BSAT-3B                 
1 37207U 10056B   26197.61030289 -.00000361  00000+0  00000+0 0  9994
2 37207   0.0725 244.8396 0002700 297.0062  82.1325  1.00270575 52393
BEIDOU-2 G4             
1 37210U 10057A   26197.58675656 -.00000125  00000+0  00000+0 0  9996
2 37210   3.7181  68.7608 0005617 185.5947  51.2125  1.00272555 57586
FENGYUN 3B              
1 37214U 10059A   26197.59927882 -.00000028  00000+0  85705-5 0  9997
2 37214  98.9603 243.7362 0023182 102.6212  50.3613 14.14846788811583
COSMO-SKYMED 4          
1 37216U 10060A   26197.60830500  .00000664  00000+0  89956-4 0  9999
2 37216  97.8887  20.7821 0001517  87.4849 272.6538 14.82150952848923
SKYTERRA 1              
1 37218U 10061A   26197.60625666 -.00000130  00000+0  00000+0 0  9994
2 37218   5.1860  50.8064 0002578  26.3471 334.1974  1.00270386 57483
O/OREOS (USA 219)       
1 37224U 10062C   26197.46070884  .00000980  00000+0  98139-4 0  9999
2 37224  71.9698  14.0214 0014031   2.6006 357.5235 14.93854221121019
